{
  "norad_id": 59539,
  "name": "STARLINK-31539",
  "history": [
    {
      "epoch": "2026-03-28T17:14:48.908832Z",
      "apogee_km": 484.1818225315337,
      "perigee_km": 481.9505592538553,
      "latitude_deg": -1.916126253781009e-05,
      "longitude_deg": 151.29985111059887,
      "height_km": 482.3048624060596,
      "semi_major_axis_km": 6861.203190892695,
      "eccentricity": 0.0001626,
      "inclination_deg": 43.0003,
      "raan_deg": 236.1387,
      "arg_perigee_deg": 298.8412,
      "mean_anomaly_deg": 61.2276,
      "mean_motion_rev_day": 15.27574291
    },
    {
      "epoch": "2026-03-29T02:39:45.063072Z",
      "apogee_km": 484.46186997872064,
      "perigee_km": 481.58759210635253,
      "latitude_deg": -3.487704541371137e-05,
      "longitude_deg": 7.461973416790429,
      "height_km": 482.45969523031766,
      "semi_major_axis_km": 6861.161731042536,
      "eccentricity": 0.00020946,
      "inclination_deg": 43.0044,
      "raan_deg": 233.9215,
      "arg_perigee_deg": 283.7988,
      "mean_anomaly_deg": 76.263,
      "mean_motion_rev_day": 15.27588137
    },
    {
      "epoch": "2026-03-30T10:02:54.424608Z",
      "apogee_km": 483.6120791356834,
      "perigee_km": 482.5291061292619,
      "latitude_deg": -2.2461338394415456e-06,
      "longitude_deg": -111.99947175217969,
      "height_km": 482.7103189414016,
      "semi_major_axis_km": 6861.207592632472,
      "eccentricity": 7.892e-05,
      "inclination_deg": 42.9993,
      "raan_deg": 226.538,
      "arg_perigee_deg": 284.5859,
      "mean_anomaly_deg": 75.4905,
      "mean_motion_rev_day": 15.27572821
    },
    {
      "epoch": "2026-03-31T15:51:50.495904Z",
      "apogee_km": 483.6932797133668,
      "perigee_km": 482.32516715641395,
      "latitude_deg": -1.382435714682579e-05,
      "longitude_deg": 152.52500493068405,
      "height_km": 482.66277537367995,
      "semi_major_axis_km": 6861.14622343489,
      "eccentricity": 9.97e-05,
      "inclination_deg": 43.0009,
      "raan_deg": 219.5206,
      "arg_perigee_deg": 280.3509,
      "mean_anomaly_deg": 79.723,
      "mean_motion_rev_day": 15.27593316
    },
    {
      "epoch": "2026-04-01T15:24:12.479040Z",
      "apogee_km": 483.5916905901868,
      "perigee_km": 482.51585587694353,
      "latitude_deg": -2.503537102837481e-05,
      "longitude_deg": 152.92486740481274,
      "height_km": 482.57662105536104,
      "semi_major_axis_km": 6861.190773233565,
      "eccentricity": 7.84e-05,
      "inclination_deg": 43.0031,
      "raan_deg": 213.9788,
      "arg_perigee_deg": 298.1304,
      "mean_anomaly_deg": 61.9468,
      "mean_motion_rev_day": 15.27578438
    }
  ]
}